BEIDOU 3 (C01)          
1 36287U 10001A   22191.63722411 -.00000274  00000+0  00000+0 0  9991
2 36287   1.9211  48.6570 0003978  30.6269 219.0419  1.00268830 45749
BEIDOU 5 (C06)          
1 36828U 10036A   22191.26186230 -.00000049  00000+0  00000+0 0  9992
2 36828  54.1983 176.0186 0030852 190.8113 121.5279  1.00292696 43806
BEIDOU 6 (C04)          
1 37210U 10057A   22191.56953135 -.00000104  00000+0  00000+0 0  9992
2 37210   0.8906  50.0205 0004132 128.4393 115.0306  1.00271116 42865
BEIDOU 7 (C07)          
1 37256U 10068A   22191.14376288 -.00000204  00000+0  00000+0 0  9997
2 37256  50.1723 289.3787 0022808 197.8480 317.1839  1.00300233 42374
BEIDOU 8 (C08)          
1 37384U 11013A   22191.33461222 -.00000180  00000+0  00000+0 0  9997
2 37384  60.3220  54.0321 0018396 182.0157 276.8003  1.00250841 41255
BEIDOU 9 (C09)          
1 37763U 11038A   22190.94980764 -.00000003  00000+0  00000+0 0  9992
2 37763  54.4722 178.5179 0098715 228.3539 318.6088  1.00274944 40225
BEIDOU 10 (C10)         
1 37948U 11073A   22191.58794826 -.00000160  00000+0  00000+0 0  9993
2 37948  50.2871 289.0144 0084363 218.0838  87.6003  1.00289203 38985
BEIDOU 11 (C05)         
1 38091U 12008A   22191.63086395  .00000065  00000+0  00000+0 0  9996
2 38091   1.6139  68.2190 0014366 340.0588 165.9725  1.00271466 38066
BEIDOU 12 (C11)         
1 38250U 12018A   22190.66608573 -.00000071  00000+0  00000+0 0  9992
2 38250  56.6882 352.8258 0020285 251.5270  91.7195  1.86234446 69495
BEIDOU 13 (C12)         
1 38251U 12018B   22190.61752360 -.00000071  00000+0  00000+0 0  9992
2 38251  56.6057 352.1502 0011080 252.5518 102.3399  1.86234237 69497
BEIDOU 15 (C14)         
1 38775U 12050B   22190.66194235 -.00000022  00000+0  00000+0 0  9991
2 38775  55.4123 110.9380 0014891 324.9673 255.8881  1.86231457 66872
BEIDOU 16 (C02)         
1 38953U 12059A   22191.48259942 -.00000167  00000+0  00000+0 0  9996
2 38953   2.0437  84.3043 0010893 305.9245 155.8890  1.00268527 35495
BEIDOU 17 (C31)         
1 40549U 15019A   22191.25797806 -.00000189  00000+0  00000+0 0  9994
2 40549  51.8485 312.4929 0037146 193.9000 328.1591  1.00292733 26664
BEIDOU 18 (C57)         
1 40748U 15037A   22190.65279176 -.00000073  00000+0  00000+0 0  9995
2 40748  55.8599 351.0027 0004496  49.2914 238.6340  1.86233390 47323
BEIDOU 19 (C58)         
1 40749U 15037B   22191.32922914 -.00000076  00000+0  00000+0 0  9999
2 40749  55.8588 350.9696 0003347   1.1640 154.7069  1.86232208 47333
BEIDOU 20 (C18)         
1 40938U 15053A   22191.14162747 -.00000131  00000+0  00000+0 0  9999
2 40938  51.4641 275.6159 0045440 197.7766 320.8745  1.00287371 24938
BEIDOU IGSO-6 (C13)     
1 41434U 16021A   22191.40510954 -.00000166  00000+0  00000+0 0  9991
2 41434  58.1328  52.5953 0043630 216.7665 260.9637  1.00278898 23060
BEIDOU-2 G7 (C03)       
1 41586U 16037A   22191.49077296 -.00000346  00000+0  00000+0 0  9992
2 41586   1.4232  65.9889 0009042   2.7362 146.8864  1.00269266 22371
BEIDOU-3 M1 (C19)       
1 43001U 17069A   22191.30354977 -.00000026  00000+0  00000+0 0  9991
2 43001  55.5656 110.9197 0011229 296.2414 151.0685  1.86231802 31824
BEIDOU-3 M2 (C20)       
1 43002U 17069B   22191.43266640 -.00000027  00000+0  00000+0 0  9996
2 43002  55.5666 110.9509 0009641 316.5213 260.3525  1.86231399 31818
BEIDOU-3 M3 (C27)       
1 43107U 18003A   22190.90973903 -.00000075  00000+0  00000+0 0  9992
2 43107  55.3104 351.9009 0005607  64.0545 328.3755  1.86232531 30573
BEIDOU-3 M4 (C28)       
1 43108U 18003B   22190.83926340 -.00000075  00000+0  00000+0 0  9998
2 43108  55.3016 351.8922 0001872 235.4624 153.4845  1.86230998 30573
BEIDOU-3 M5 (C21)       
1 43207U 18018A   22191.24104389 -.00000026  00000+0  00000+0 0  9997
2 43207  55.5245 111.0354 0006824 338.0763  21.8880  1.86231743 29967
BEIDOU-3 M6 (C22)       
1 43208U 18018B   22191.30770634 -.00000026  00000+0  00000+0 0  9997
2 43208  55.5235 111.0389 0008874 308.7675  51.1517  1.86231547 29963
BEIDOU-3 M7 (C29)       
1 43245U 18029A   22191.48167440 -.00000079  00000+0  00000+0 0  9992
2 43245  55.2213 349.6485 0001198  93.3613 232.9651  1.86232783 29112
BEIDOU-3 M8 (C30)       
1 43246U 18029B   22191.49696618 -.00000079  00000+0  10000-3 0  9993
2 43246  55.2179 349.6779 0003932  16.5490   6.5768  1.86232930 29116
BEIDOU IGSO-7 (C16)     
1 43539U 18057A   22190.92594160 -.00000050  00000+0  00000+0 0  9999
2 43539  55.0942 175.5322 0052540 230.0530 324.8894  1.00303883 14734
BEIDOU-3 M9 (C23)       
1 43581U 18062A   22190.71748227  .00000099  00000+0  00000+0 0  9996
2 43581  54.2703 231.3229 0005522 266.7342 164.8679  1.86232114 26849
BEIDOU-3 M10 (C24)      
1 43582U 18062B   22190.53276378  .00000098  00000+0  00000+0 0  9999
2 43582  54.2697 231.3186 0004149 343.2809  56.2655  1.86232270 26848
BEIDOU-3 M11 (C25)      
1 43602U 18067A   22190.61350926  .00000101  00000+0  00000+0 0  9993
2 43602  54.3520 229.9321 0006490   2.2183 132.8514  1.86231788 26331
BEIDOU-3 M12 (C26)      
1 43603U 18067B   22191.62573466  .00000104  00000+0  00000+0 0  9995
2 43603  54.3484 229.8643 0003783 346.4301  17.6625  1.86231708 26373
BEIDOU-3 M13 (C32)      
1 43622U 18072A   22191.28572309 -.00000026  00000+0  00000+0 0  9993
2 43622  55.4922 110.5876 0007803 293.4238 231.9207  1.86231905 25874
BEIDOU-3 M14 (C33)      
1 43623U 18072B   22191.16782269 -.00000026  00000+0  00000+0 0  9999
2 43623  55.4934 110.5836 0005969 317.1647 219.3697  1.86231924 25877
BEIDOU-3 M15 (C34)      
1 43647U 18078A   22190.61453104 -.00000075  00000+0  10000-3 0  9992
2 43647  55.1176 349.8352 0006407  16.8462  44.2997  1.86232885 25374
BEIDOU-3 M16 (C35)      
1 43648U 18078B   22190.60243677 -.00000075  00000+0  00000+0 0  9999
2 43648  55.1134 349.8415 0004629  32.3550 288.4311  1.86232334 25386
BEIDOU-3 G1 (C59)       
1 43683U 18085A   22191.49375392 -.00000268  00000+0  00000+0 0  9998
2 43683   0.9117 162.2026 0004128 357.6246  86.3511  1.00273946 13641
BEIDOU-3 M17 (C36)      
1 43706U 18093A   22191.34912304  .00000102  00000+0  00000+0 0  9993
2 43706  54.3519 231.1878 0011017 271.8148  88.1472  1.86231769 24762
BEIDOU-3 M18 (C37)      
1 43707U 18093B   22191.28510236  .00000101  00000+0  00000+0 0  9994
2 43707  54.3525 231.1806 0008654 293.4652 114.8098  1.86232260 24751
BEIDOU-3 IGSO-1 (C38)   
1 44204U 19023A   22191.36830780 -.00000222  00000+0  00000+0 0  9994
2 44204  56.5926  52.7248 0019184 197.5426 286.1960  1.00251052 11947
BEIDOU-2 G8             
1 44231U 19027A   22191.65731321 -.00000240  00000+0  00000+0 0  9991
2 44231   0.9157  77.1304 0005046 110.4607 122.0600  1.00267737 11651
BEIDOU-3 IGSO-2 (C39)   
1 44337U 19035A   22191.48568501 -.00000070  00000+0  00000+0 0  9997
2 44337  55.1250 171.5178 0025764 194.6517 213.5309  1.00298103 11287
BEIDOU-3 M23 (C45)      
1 44542U 19061A   22191.28510848  .00000102  00000+0  00000+0 0  9998
2 44542  54.5783 231.3362 0008188 324.4542  35.5796  1.86231268 19015
BEIDOU-3 M24 (C46)      
1 44543U 19061B   22191.48901260  .00000102  00000+0  00000+0 0  9993
2 44543  54.5762 231.2985 0005607 308.6831  99.4024  1.86231781 19014
BEIDOU-3 IGSO-3         
1 44709U 19073A   22191.70084362 -.00000207  00000+0  10000-3 0  9992
2 44709  57.2302 296.1488 0026921 177.4181 183.4161  1.00301931 10038
BEIDOU-3 M21            
1 44793U 19078A   22190.59237288 -.00000075  00000+0  10000-3 0  9996
2 44793  54.9642 349.8550 0006429  23.7485 336.3975  1.86232361 17863
BEIDOU-3 M22            
1 44794U 19078B   22190.46438406 -.00000075  00000+0  00000+0 0  9993
2 44794  54.9387 349.8505 0004437  24.0022 162.0379  1.86232812 17850
BEIDOU-3 M19            
1 44864U 19090A   22191.23490388 -.00000026  00000+0  00000+0 0  9994
2 44864  55.4261 110.7993 0017688 274.1706 262.9151  1.86232031 17457
BEIDOU-3 M20            
1 44865U 19090B   22191.10101424 -.00000025  00000+0  00000+0 0  9990
2 44865  55.4279 110.8358 0016096 287.9525 249.2293  1.86231988 17428
BEIDOU-3 G2             
1 45344U 20017A   22191.48181462 -.00000130  00000+0  00000+0 0  9992
2 45344   2.0518 353.1725 0005137 120.6655  68.0531  1.00270090  8847
BEIDOU-3 G3             
1 45807U 20040A   22191.48791149 -.00000343  00000+0  00000+0 0  9997
2 45807   1.3906 303.8174 0006258 333.1532 297.5721  1.00275631  7658
